TANAGER-1               
1 60507U 24149AR  26195.50092335  .00000194  00000+0  61157-5 0  9996
2 60507  97.2318 289.6368 0002289 131.3848 228.7597 15.43889256107257
